FLOCK 4G-18             
1 62680U 25009BZ  26068.19114186  .00011766  00000+0  44319-3 0  9995
2 62680  97.4054 150.5008 0004100 335.7331  24.3715 15.27241676121267
STARLINK-34056          
1 63841U 25093F   26068.38837098  .00030850  00000+0  11262-2 0  9998
2 63841  42.9951  79.8164 0000494 239.5372 120.5431 15.27569784 47705
